GLOBALSTAR M075         
1 37192U 10054E   24285.55020734 -.00000070  00000+0  18763-3 0  9994
2 37192  51.9943 218.5810 0000555  77.2939  93.8749 12.62267458644975
GLOBALSTAR M073         
1 37193U 10054F   24284.88208922 -.00000065  00000+0  21540-3 0  9998
2 37193  52.0039 134.2458 0000913  94.7537 278.4166 12.62271206646356
GLOBALSTAR M083         
1 37739U 11033A   24284.84611840 -.00000081  00000+0  12493-3 0  9990
2 37739  51.9849  83.4242 0000952  87.3485  62.8885 12.62266000615364
GLOBALSTAR M088         
1 37740U 11033B   24285.52974493 -.00000076  00000+0  15715-3 0  9998
2 37740  51.9760 347.0456 0000571  94.2222  45.0705 12.62262908611281
GLOBALSTAR M091         
1 37741U 11033C   24285.54829358 -.00000062  00000+0  23138-3 0  9993
2 37741  52.0001 310.1028 0000641  68.4056  93.2442 12.62268333612040
GLOBALSTAR M085         
1 37742U 11033D   24285.37423701 -.00000051  00000+0  29661-3 0  9992
2 37742  51.9856 261.8878 0000706  56.9683  94.6478 12.62267176612769
GLOBALSTAR M081         
1 37743U 11033E   24285.47984814 -.00000025  00000+0  43707-3 0  9999
2 37743  51.9951 264.1992 0000738  78.0350  73.9552 12.62271072612819
GLOBALSTAR M089         
1 37744U 11033F   24285.20052508 -.00000026  00000+0  43556-3 0  9990
2 37744  51.9923 219.3263 0000519  97.3270  43.1179 12.62270629613490
